STARLINK-1522_new
1 16027C 20055A   21326.14360183 -.00004762  00000-0 -31915-3 0  3268
2 16027  53.0526 328.1062 0001624  60.4309  56.1326 15.06391391    11
STARLINK-1522_old
1 26027C 20055A   21325.18194252 -.00002015  00000-0 -13497-3 0  3256
2 26027  53.0529 332.4236 0001695  62.5702 235.9514 15.06409426    18
